{
  "61706": {
    "noradId": "61706",
    "tle": [
      "1 61706C 24195V   26059.81923611 -.00007750  00000+0 -26121-3 0   596",
      "2 61706  53.1582 196.1728 0001205  84.9747 101.1179 15.30198376    11"
    ]
  },
  "61707": {
    "noradId": "61707",
    "tle": [
      "1 61707C 24196A   26059.81645833  .00009216  00000+0  31055-3 0   594",
      "2 61707  53.1599 142.2297 0001390  83.2395 242.5803 15.30189906    12"
    ]
  },
  "61708": {
    "noradId": "61708",
    "tle": [
      "1 61708C 24196B   26059.81715278 -.00026046  00000+0 -87778-3 0   591",
      "2 61708  53.1576 142.5353 0001237  80.6700  91.9329 15.30220079    11"
    ]
  },
  "61709": {
    "noradId": "61709",
    "tle": [
      "1 61709C 24196C   26059.81229167 -.00015369  00000+0 -51800-3 0   592",
      "2 61709  53.1591 142.3951 0001196  84.1009 143.1436 15.30206074    14"
    ]
  },
  "61710": {
    "noradId": "61710",
    "tle": [
      "1 61710C 24196D   26059.81645833 -.00021349  00000+0 -71964-3 0   594",
      "2 61710  53.1584 142.7687 0001202  84.9666 327.4841 15.30208672    16"
    ]
  },
  "61711": {
    "noradId": "61711",
    "tle": [
      "1 61711C 24196E   26059.81576389 -.00007991  00000+0 -26931-3 0   595",
      "2 61711  53.1596 142.2964 0001244  84.7152 202.3895 15.30202260    14"
    ]
  },
  "61712": {
    "noradId": "61712",
    "tle": [
      "1 61712C 24196F   26059.81229167 -.00004430  00000+0 -14927-3 0   592",
      "2 61712  53.1575 142.6733 0001216  90.5926 357.0487 15.30202252    19"
    ]
  },
  "61713": {
    "noradId": "61713",
    "tle": [
      "1 61713C 24196G   26059.81437500 -.00018903  00000+0 -63710-3 0   599",
      "2 61713  53.1597 142.9036 0001215  89.3471 247.6391 15.30210424    11"
    ]
  },
  "61714": {
    "noradId": "61714",
    "tle": [
      "1 61714C 24196H   26059.81576389 -.00004525  00000+0 -15250-3 0   590",
      "2 61714  53.1576 142.5869 0001150  94.1121  47.5718 15.30200702    11"
    ]
  },
  "61715": {
    "noradId": "61715",
    "tle": [
      "1 61715C 24196J   26059.81645833 -.00020578  00000+0 -69357-3 0   595",
      "2 61715  53.1582 142.4450 0001218  87.7196 127.5942 15.30211640    10"
    ]
  },
  "61716": {
    "noradId": "61716",
    "tle": [
      "1 61716C 24196K   26059.81715278  .00014993  00000+0  50509-3 0   598",
      "2 61716  53.1591 142.8328 0001213 108.3957 272.9364 15.30192587    10"
    ]
  },
  "61717": {
    "noradId": "61717",
    "tle": [
      "1 61717C 24196L   26059.81298611 -.00004817  00000+0 -16235-3 0   590",
      "2 61717  53.1587 142.4258 0001293  83.6592 129.9690 15.30198365    15"
    ]
  },
  "61718": {
    "noradId": "61718",
    "tle": [
      "1 61718C 24196M   26059.81576389 -.00046475  00000+0 -15656-2 0   593",
      "2 61718  53.1593 129.8853 0001280  77.5209   3.2133 15.30253262    10"
    ]
  },
  "61719": {
    "noradId": "61719",
    "tle": [
      "1 61719C 24196N   26059.81923611  .00068064  00000+0  22925-2 0   591",
      "2 61719  53.1581 142.7195 0001334 100.2477 344.8716 15.30144519    17"
    ]
  },
  "61720": {
    "noradId": "61720",
    "tle": [
      "1 61720C 24196P   26059.81437500 -.00006753  00000+0 -22757-3 0   593",
      "2 61720  53.1594 142.8793 0001329  77.9788 270.6366 15.30200331    19"
    ]
  },
  "61721": {
    "noradId": "61721",
    "tle": [
      "1 61721C 24196Q   26059.81229167 -.00007609  00000+0 -25645-3 0   592",
      "2 61721  53.1593 142.3585 0001356  96.4888 148.2144 15.30197350    10"
    ]
  },
  "61722": {
    "noradId": "61722",
    "tle": [
      "1 61722C 24196R   26059.81506944 -.00031293  00000+0 -10547-2 0   594",
      "2 61722  53.1586 142.8068 0001157  81.2801 306.0508 15.30222867    10"
    ]
  },
  "61723": {
    "noradId": "61723",
    "tle": [
      "1 61723C 24196S   26059.81854167 -.00009505  00000+0 -32037-3 0   598",
      "2 61723  53.1581 106.7340 0001293  80.8084 325.9656 15.30197578    11"
    ]
  },
  "61724": {
    "noradId": "61724",
    "tle": [
      "1 61724C 24196T   26059.81715278 -.00000285  00000+0 -95978-5 0   599",
      "2 61724  53.1597 142.9009 0001216  89.4265 257.0528 15.30194722    15"
    ]
  },
  "61725": {
    "noradId": "61725",
    "tle": [
      "1 61725C 24196U   26059.81784722 -.00016852  00000+0 -56801-3 0   597",
      "2 61725  53.1578 142.6910 0001396  88.2753   6.7285 15.30205493    18"
    ]
  },
  "61726": {
    "noradId": "61726",
    "tle": [
      "1 61726C 24196V   26059.81298611 -.00044242  00000+0 -14906-2 0   598",
      "2 61726  53.1577 142.6331 0001231  85.6776  23.2093 15.30247384    15"
    ]
  },
  "61727": {
    "noradId": "61727",
    "tle": [
      "1 61727C 24196W   26059.81298611 -.00003401  00000+0 -11460-3 0   594",
      "2 61727  53.1578 142.5630 0001277  90.8553  52.9696 15.30198245    18"
    ]
  },
  "61728": {
    "noradId": "61728",
    "tle": [
      "1 61728C 24196X   26059.81229167 -.00021369  00000+0 -72017-3 0   593",
      "2 61728  53.1579 142.4964 0001213  84.0783  90.8212 15.30214116    10"
    ]
  },
  "61729": {
    "noradId": "61729",
    "tle": [
      "1 61729C 24196Y   26059.81645833 -.00019383  00000+0 -65328-3 0   596",
      "2 61729  53.1578 142.5122 0001330  79.4805 100.9362 15.30210700    14"
    ]
  },
  "61845": {
    "noradId": "61845",
    "tle": [
      "1 61845C 24202A   26059.81715278 -.00011736  00000+0 -42519-3 0   595",
      "2 61845  43.0001 276.8673 0001361 257.4926 351.1254 15.27582672    16"
    ]
  },
  "61846": {
    "noradId": "61846",
    "tle": [
      "1 61846C 24202B   26059.81368056 -.00006456  00000+0 -23383-3 0   595",
      "2 61846  43.0001 277.4154 0001632 265.6993 104.4535 15.27583883    10"
    ]
  },
  "61847": {
    "noradId": "61847",
    "tle": [
      "1 61847C 24202C   26059.81298611  .00001605  00000+0  58123-4 0   595",
      "2 61847  42.9994 276.8214 0001408 267.0350 346.9279 15.27572952    17"
    ]
  },
  "61848": {
    "noradId": "61848",
    "tle": [
      "1 61848C 24202D   26059.81437500  .00001794  00000+0  64964-4 0   597",
      "2 61848  43.0021 277.0184 0001317 275.5714 261.0866 15.27583626    16"
    ]
  },
  "61849": {
    "noradId": "61849",
    "tle": [
      "1 61849C 24202E   26059.81298611 -.00019485  00000+0 -70583-3 0   597",
      "2 61849  43.0030 277.0759 0001344 262.7195 245.1214 15.27594699    18"
    ]
  },
  "61850": {
    "noradId": "61850",
    "tle": [
      "1 61850C 24202F   26059.81298611 -.00015244  00000+0 -55216-3 0   594",
      "2 61850  43.0017 287.7645 0001382 264.8542 116.5577 15.27592632    16"
    ]
  },
  "61851": {
    "noradId": "61851",
    "tle": [
      "1 61851C 24202G   26059.81576389 -.00012297  00000+0 -44545-3 0   594",
      "2 61851  42.9993 276.7537 0001408 263.9347  26.5594 15.27585518    12"
    ]
  },
  "61852": {
    "noradId": "61852",
    "tle": [
      "1 61852C 24202H   26059.81298611 -.00006451  00000+0 -23367-3 0   598",
      "2 61852  43.0026 287.8151 0001368 266.2172  93.9597 15.27581793    16"
    ]
  },
  "61853": {
    "noradId": "61853",
    "tle": [
      "1 61853C 24202J   26059.81854167 -.00019435  00000+0 -70402-3 0   591",
      "2 61853  43.0031 287.8174 0001451 265.2776 111.3498 15.27593839    19"
    ]
  },
  "61854": {
    "noradId": "61854",
    "tle": [
      "1 61854C 24202K   26059.81506944 -.00009565  00000+0 -34644-3 0   590",
      "2 61854  43.0035 287.8868 0001312 270.9972  65.2698 15.27587155    14"
    ]
  },
  "61855": {
    "noradId": "61855",
    "tle": [
      "1 61855C 24202L   26059.81645833  .00016706  00000+0  60482-3 0   594",
      "2 61855  43.0037 287.9292 0001693 270.5813  52.0377 15.27575968    18"
    ]
  },
  "61856": {
    "noradId": "61856",
    "tle": [
      "1 61856C 24202M   26059.81368056  .00012443  00000+0  45097-3 0   593",
      "2 61856  43.0020 287.9956 0001480 269.0446  17.2310 15.27544078    15"
    ]
  },
  "61857": {
    "noradId": "61857",
    "tle": [
      "1 61857C 24202N   26059.81645833 -.00017739  00000+0 -64251-3 0   593",
      "2 61857  43.0009 288.0839 0001377 269.6298 349.4086 15.27594885    12"
    ]
  },
  "61858": {
    "noradId": "61858",
    "tle": [
      "1 61858C 24202P   26059.81784722 -.00018895  00000+0 -68437-3 0   599",
      "2 61858  43.0014 288.0242 0001586 274.9853  12.9098 15.27596944    18"
    ]
  },
  "61859": {
    "noradId": "61859",
    "tle": [
      "1 61859C 24202Q   26059.81298611 -.00000061  00000+0 -22083-5 0   592",
      "2 61859  43.0007 288.1378 0001472 265.5976 320.1757 15.27571786    11"
    ]
  },
  "61860": {
    "noradId": "61860",
    "tle": [
      "1 61860C 24202R   26059.81298611  .00006936  00000+0  25116-3 0   597",
      "2 61860  43.0014 284.4602 0001529 267.8859  47.2153 15.27580352    14"
    ]
  },
  "61861": {
    "noradId": "61861",
    "tle": [
      "1 61861C 24202S   26059.81437500  .00004094  00000+0  14823-3 0   596",
      "2 61861  43.0005 288.2294 0001411 272.9239 277.9582 15.27588223    16"
    ]
  },
  "61862": {
    "noradId": "61862",
    "tle": [
      "1 61862C 24202T   26059.81645833  .00017475  00000+0  63340-3 0   592",
      "2 61862  43.0004 288.1679 0001483 260.1717 323.5860 15.27537868    17"
    ]
  },
  "61863": {
    "noradId": "61863",
    "tle": [
      "1 61863C 24202U   26059.81229167 -.00008129  00000+0 -29450-3 0   593",
      "2 61863  43.0002 288.3414 0001304 264.5477 232.5220 15.27578297    18"
    ]
  },
  "61864": {
    "noradId": "61864",
    "tle": [
      "1 61864C 24202V   26059.81368056  .00000209  00000+0  75708-5 0   593",
      "2 61864  43.0000 288.4178 0001487 264.8845 204.4451 15.27570621    16"
    ]
  },
  "61865": {
    "noradId": "61865",
    "tle": [
      "1 61865C 24202W   26059.81229167 -.00017191  00000+0 -62268-3 0   598",
      "2 61865  42.9998 288.4752 0001491 262.6618 177.7988 15.27594195    17"
    ]
  }
}